CCSDS_OMM_VERS = 2.0
CREATION_DATE  = 
ORIGINATOR     = 

OBJECT_NAME    = YOTSUBA-KULOVER
OBJECT_ID      = 1998-067XN
CENTER_NAME    = EARTH
REF_FRAME      = TEME
TIME_SYSTEM    = UTC
MEAN_ELEMENT_THEORY = SGP/SGP4

EPOCH          = 2026-03-08T09:03:50.069376
MEAN_MOTION    = 15.79913922
ECCENTRICITY   = .0005726
INCLINATION    = 51.6211
RA_OF_ASC_NODE = 64.0949
ARG_OF_PERICENTER = 58.2301
MEAN_ANOMALY   = 301.9258

EPHEMERIS_TYPE = 0
CLASSIFICATION_TYPE = U
NORAD_CAT_ID   = 65941
ELEMENT_SET_NO = 999
REV_AT_EPOCH   = 2329
BSTAR          = .14529E-2
MEAN_MOTION_DOT = .283648E-2
MEAN_MOTION_DDOT = 0

CCSDS_OMM_VERS = 2.0
CREATION_DATE  = 
ORIGINATOR     = 

OBJECT_NAME    = E-KAGAKU-1
OBJECT_ID      = 1998-067XQ
CENTER_NAME    = EARTH
REF_FRAME      = TEME
TIME_SYSTEM    = UTC
MEAN_ELEMENT_THEORY = SGP/SGP4

EPOCH          = 2026-03-08T09:09:50.404896
MEAN_MOTION    = 15.79578818
ECCENTRICITY   = .0006096
INCLINATION    = 51.6232
RA_OF_ASC_NODE = 64.1404
ARG_OF_PERICENTER = 65.6433
MEAN_ANOMALY   = 294.5204

EPHEMERIS_TYPE = 0
CLASSIFICATION_TYPE = U
NORAD_CAT_ID   = 65943
ELEMENT_SET_NO = 999
REV_AT_EPOCH   = 2329
BSTAR          = .14157E-2
MEAN_MOTION_DOT = .271841E-2
MEAN_MOTION_DDOT = 0

CCSDS_OMM_VERS = 2.0
CREATION_DATE  = 
ORIGINATOR     = 

OBJECT_NAME    = HRC MONOBLOCK CAMERA
OBJECT_ID      = 1998-067XR
CENTER_NAME    = EARTH
REF_FRAME      = TEME
TIME_SYSTEM    = UTC
MEAN_ELEMENT_THEORY = SGP/SGP4

EPOCH          = 2026-03-08T05:29:43.434816
MEAN_MOTION    = 15.62016633
ECCENTRICITY   = .0003616
INCLINATION    = 51.6274
RA_OF_ASC_NODE = 72.9039
ARG_OF_PERICENTER = 85.3057
MEAN_ANOMALY   = 274.8350

EPHEMERIS_TYPE = 0
CLASSIFICATION_TYPE = U
NORAD_CAT_ID   = 66052
ELEMENT_SET_NO = 999
REV_AT_EPOCH   = 2216
BSTAR          = .85769E-3
MEAN_MOTION_DOT = .76624E-3
MEAN_MOTION_DDOT = 0

CCSDS_OMM_VERS = 2.0
CREATION_DATE  = 
ORIGINATOR     = 

OBJECT_NAME    = HTV-X1
OBJECT_ID      = 2025-241A
CENTER_NAME    = EARTH
REF_FRAME      = TEME
TIME_SYSTEM    = UTC
MEAN_ELEMENT_THEORY = SGP/SGP4

EPOCH          = 2026-03-07T18:30:03.892896
MEAN_MOTION    = 15.48514260
ECCENTRICITY   = .00081173
INCLINATION    = 51.6320
RA_OF_ASC_NODE = 81.8427
ARG_OF_PERICENTER = 167.9196
MEAN_ANOMALY   = 192.1989

EPHEMERIS_TYPE = 0
CLASSIFICATION_TYPE = U
NORAD_CAT_ID   = 66174
ELEMENT_SET_NO = 999
REV_AT_EPOCH   = 55447
BSTAR          = .26707368E-3
MEAN_MOTION_DOT = .14056E-3
MEAN_MOTION_DDOT = 0

CCSDS_OMM_VERS = 2.0
CREATION_DATE  = 
ORIGINATOR     = 

OBJECT_NAME    = SZ-21 MODULE
OBJECT_ID      = 2025-246C
CENTER_NAME    = EARTH
REF_FRAME      = TEME
TIME_SYSTEM    = UTC
MEAN_ELEMENT_THEORY = SGP/SGP4

EPOCH          = 2026-03-08T11:33:38.438496
MEAN_MOTION    = 15.68439645
ECCENTRICITY   = .0001377
INCLINATION    = 41.4736
RA_OF_ASC_NODE = 210.7960
ARG_OF_PERICENTER = 295.9249
MEAN_ANOMALY   = 64.1451

EPHEMERIS_TYPE = 0
CLASSIFICATION_TYPE = U
NORAD_CAT_ID   = 66515
ELEMENT_SET_NO = 999
REV_AT_EPOCH   = 1788
BSTAR          = .41839E-3
MEAN_MOTION_DOT = .48562E-3
MEAN_MOTION_DDOT = 0

CCSDS_OMM_VERS = 2.0
CREATION_DATE  = 
ORIGINATOR     = 

OBJECT_NAME    = SHENZHOU-22
OBJECT_ID      = 2025-272A
CENTER_NAME    = EARTH
REF_FRAME      = TEME
TIME_SYSTEM    = UTC
MEAN_ELEMENT_THEORY = SGP/SGP4

EPOCH          = 2026-03-08T10:27:25.356096
MEAN_MOTION    = 15.60585348
ECCENTRICITY   = .0006977
INCLINATION    = 41.4663
RA_OF_ASC_NODE = 215.7910
ARG_OF_PERICENTER = 265.0647
MEAN_ANOMALY   = 94.9395

EPHEMERIS_TYPE = 0
CLASSIFICATION_TYPE = U
NORAD_CAT_ID   = 66645
ELEMENT_SET_NO = 999
REV_AT_EPOCH   = 26901
BSTAR          = .34207E-3
MEAN_MOTION_DOT = .28893E-3
MEAN_MOTION_DDOT = 0

CCSDS_OMM_VERS = 2.0
CREATION_DATE  = 
ORIGINATOR     = 

OBJECT_NAME    = SOYUZ-MS 28
OBJECT_ID      = 2025-275A
CENTER_NAME    = EARTH
REF_FRAME      = TEME
TIME_SYSTEM    = UTC
MEAN_ELEMENT_THEORY = SGP/SGP4

EPOCH          = 2026-03-08T09:59:22.308288
MEAN_MOTION    = 15.48526204
ECCENTRICITY   = .0008065
INCLINATION    = 51.6319
RA_OF_ASC_NODE = 78.6521
ARG_OF_PERICENTER = 170.0958
MEAN_ANOMALY   = 190.0190

EPHEMERIS_TYPE = 0
CLASSIFICATION_TYPE = U
NORAD_CAT_ID   = 66664
ELEMENT_SET_NO = 999
REV_AT_EPOCH   = 55614
BSTAR          = .21617E-3
MEAN_MOTION_DOT = .11291E-3
MEAN_MOTION_DDOT = 0

CCSDS_OMM_VERS = 2.0
CREATION_DATE  = 
ORIGINATOR     = 

OBJECT_NAME    = DUPLEX
OBJECT_ID      = 1998-067XS
CENTER_NAME    = EARTH
REF_FRAME      = TEME
TIME_SYSTEM    = UTC
MEAN_ELEMENT_THEORY = SGP/SGP4

EPOCH          = 2026-03-08T10:19:31.724256
MEAN_MOTION    = 15.56119236
ECCENTRICITY   = .0002272
INCLINATION    = 51.6288
RA_OF_ASC_NODE = 75.7492
ARG_OF_PERICENTER = 106.3589
MEAN_ANOMALY   = 253.7653

EPHEMERIS_TYPE = 0
CLASSIFICATION_TYPE = U
NORAD_CAT_ID   = 66906
ELEMENT_SET_NO = 999
REV_AT_EPOCH   = 1493
BSTAR          = .6298E-3
MEAN_MOTION_DOT = .44619E-3
MEAN_MOTION_DDOT = 0

CCSDS_OMM_VERS = 2.0
CREATION_DATE  = 
ORIGINATOR     = 

OBJECT_NAME    = ISS OBJECT XT
OBJECT_ID      = 1998-067XT
CENTER_NAME    = EARTH
REF_FRAME      = TEME
TIME_SYSTEM    = UTC
MEAN_ELEMENT_THEORY = SGP/SGP4

EPOCH          = 2026-03-08T07:24:56.473344
MEAN_MOTION    = 15.68765418
ECCENTRICITY   = .0004713
INCLINATION    = 51.6249
RA_OF_ASC_NODE = 72.6759
ARG_OF_PERICENTER = 69.3241
MEAN_ANOMALY   = 290.8261

EPHEMERIS_TYPE = 0
CLASSIFICATION_TYPE = U
NORAD_CAT_ID   = 66907
ELEMENT_SET_NO = 999
REV_AT_EPOCH   = 1496
BSTAR          = .18024E-2
MEAN_MOTION_DOT = .215395E-2
MEAN_MOTION_DDOT = 0

CCSDS_OMM_VERS = 2.0
CREATION_DATE  = 
ORIGINATOR     = 

OBJECT_NAME    = ISS OBJECT XU
OBJECT_ID      = 1998-067XU
CENTER_NAME    = EARTH
REF_FRAME      = TEME
TIME_SYSTEM    = UTC
MEAN_ELEMENT_THEORY = SGP/SGP4

EPOCH          = 2026-03-08T05:50:46.029120
MEAN_MOTION    = 15.68848873
ECCENTRICITY   = .0004911
INCLINATION    = 51.6246
RA_OF_ASC_NODE = 72.9860
ARG_OF_PERICENTER = 71.7703
MEAN_ANOMALY   = 288.3828

EPHEMERIS_TYPE = 0
CLASSIFICATION_TYPE = U
NORAD_CAT_ID   = 66908
ELEMENT_SET_NO = 999
REV_AT_EPOCH   = 1495
BSTAR          = .17893E-2
MEAN_MOTION_DOT = .21454E-2
MEAN_MOTION_DDOT = 0

CCSDS_OMM_VERS = 2.0
CREATION_DATE  = 
ORIGINATOR     = 

OBJECT_NAME    = SILVERSAT
OBJECT_ID      = 1998-067XV
CENTER_NAME    = EARTH
REF_FRAME      = TEME
TIME_SYSTEM    = UTC
MEAN_ELEMENT_THEORY = SGP/SGP4

EPOCH          = 2026-03-08T05:56:15.570816
MEAN_MOTION    = 15.71604056
ECCENTRICITY   = .000559
INCLINATION    = 51.6249
RA_OF_ASC_NODE = 72.2602
ARG_OF_PERICENTER = 67.4471
MEAN_ANOMALY   = 292.7118

EPHEMERIS_TYPE = 0
CLASSIFICATION_TYPE = U
NORAD_CAT_ID   = 66909
ELEMENT_SET_NO = 999
REV_AT_EPOCH   = 1496
BSTAR          = .19186E-2
MEAN_MOTION_DOT = .259539E-2
MEAN_MOTION_DDOT = 0

CCSDS_OMM_VERS = 2.0
CREATION_DATE  = 
ORIGINATOR     = 

OBJECT_NAME    = ISS OBJECT XW
OBJECT_ID      = 1998-067XW
CENTER_NAME    = EARTH
REF_FRAME      = TEME
TIME_SYSTEM    = UTC
MEAN_ELEMENT_THEORY = SGP/SGP4

EPOCH          = 2026-03-08T07:16:44.794272
MEAN_MOTION    = 15.68140942
ECCENTRICITY   = .0005106
INCLINATION    = 51.6242
RA_OF_ASC_NODE = 72.6301
ARG_OF_PERICENTER = 77.4385
MEAN_ANOMALY   = 282.7182

EPHEMERIS_TYPE = 0
CLASSIFICATION_TYPE = U
NORAD_CAT_ID   = 66910
ELEMENT_SET_NO = 999
REV_AT_EPOCH   = 1496
BSTAR          = .16698E-2
MEAN_MOTION_DOT = .193965E-2
MEAN_MOTION_DDOT = 0

